PROGRESS-MS 26          
1 58961U 24029A   24061.70665397  .00017226  00000+0  31417-3 0  9998
2 58961  51.6411 128.0425 0005560 310.6946 194.0469 15.49529377441886
STARLINK-31383          
1 58936U 24027F   24061.91667824 -.02221501  00000+0 -56465-1 0  9993
2 58936  53.1589 134.8278 0001383  60.6157  16.9040 15.42382056  4287
STARLINK-31390          
1 58937U 24027G   24062.25001157 -.02212782  00000+0 -55752-1 0  9992
2 58937  53.1591 133.2424 0001507  85.6119  47.7531 15.42627207  4287
STARLINK-31377          
1 58938U 24027H   24062.25001157 -.02211626  00000+0 -55728-1 0  9992
2 58938  53.1591 133.2386 0001575  89.6824  45.5941 15.42622165  4185
STARLINK-31372          
1 58939U 24027J   24062.25001157 -.02046564  00000+0 -49124-1 0  9993
2 58939  53.1589 133.2336 0001605  89.2872  48.4457 15.44341904  4232
STARLINK-31371          
1 58940U 24027K   24062.25001157 -.02043032  00000+0 -49044-1 0  9993
2 58940  53.1589 133.2294 0001664  80.1698  59.4855 15.44332245  4285
STARLINK-31345          
1 58941U 24027L   24061.91667824  .00003476  00000+0  84576-4 0  9991
2 58941  53.1583 134.8065 0001076  95.2764 352.7137 15.43832894  4287
STARLINK-31354          
1 58942U 24027M   24061.91667824  .00012653  00000+0  28348-3 0  9993
2 58942  53.1584 134.8024 0000996  98.0803 351.8148 15.43834214  4289
STARLINK-31346          
1 58943U 24027N   24062.25001157  .00023829  00000+0  52477-3 0  9990
2 58943  53.1586 133.2174 0000934  93.0498  52.4188 15.43852137  4235
STARLINK-31336          
1 58944U 24027P   24062.25001157  .00025019  00000+0  55108-3 0  9998
2 58944  53.1586 133.2132 0001198  80.9922  66.4507 15.43816824  4288
STARLINK-31359          
1 58945U 24027Q   24058.41667824 -.01749052  00000+0 -15673-1 0  9995
2 58945  53.1625 150.8588 0000790  90.6214 247.9679 15.70839654  3733
STARLINK-31331          
1 58946U 24027R   24061.16668981 -.00028991  00000+0 -62173-3 0  9997
2 58946  53.1588 138.3423 0001148 130.5885 116.2104 15.43891672  4074
STARLINK-31116          
1 58947U 24027S   24061.91667824  .00017269  00000+0  38343-3 0  9992
2 58947  53.1584 134.7825 0000953  78.3247  21.1626 15.43828282  4026
STARLINK-31311          
1 58948U 24027T   24061.66667824  .00033545  00000+0  73433-3 0  9999
2 58948  53.1583 135.9657 0000926  79.2298  71.8905 15.43842969  3881
STARLINK-31294          
1 58949U 24027U   24061.91667824  .00031544  00000+0  69161-3 0  9998
2 58949  53.1583 134.7745 0001167  94.9865   8.3154 15.43826996  4287
STARLINK-31287          
1 58950U 24027V   24062.18876275  .01619418  22019-2  12213-2 0  9997
2 58950  53.1600 129.3313 0004649  16.6932  30.8061 16.15127970  4063
STARLINK-31330          
1 58951U 24027W   24062.16667824  .00045584  00000+0  99312-3 0  9999
2 58951  53.1583 133.5764 0001392 106.5167 312.7801 15.43841459  4274
STARLINK-31293          
1 58952U 24027X   24062.16667824  .00064914  00000+0  14076-2 0  9991
2 58952  53.1584 133.5843 0001102  84.6580 330.8112 15.43826001  4179
DRUMS TARGET-2          
1 58954U 21102N   24061.65166036  .00015196  00000+0  95514-3 0  9991
2 58954  97.4469 112.1155 0018046 255.0864 104.8367 15.09196994  9592
HBTSS-SV2               
1 58955U 24028A   24061.74643934  .00000117  00000+0  21874-3 0  9994
2 58955  39.9905 290.6780 0007806  91.3988 268.7653 13.70234621  2176
RAPTOR4                 
1 58956U 24028B   24062.03745058  .00000005  00000+0  93330-4 0  9991
2 58956  39.9904 289.3315 0007776  93.9561 266.2075 13.70280823  2206
RAPTOR1                 
1 58957U 24028C   24062.03689715 -.00000010  00000+0  76576-4 0  9999
2 58957  39.9899 289.3354 0007795  95.4705 264.6930 13.70327767  2202
RAPTOR3                 
1 58958U 24028D   24062.03630189 -.00000052  00000+0  28619-4 0  9992
2 58958  39.9909 289.3252 0007751  97.3283 262.8345 13.70378181  2202
RAPTOR2                 
1 58959U 24028E   24062.03573714  .00000006  00000+0  94526-4 0  9991
2 58959  39.9903 289.3285 0007751  99.1468 261.0155 13.70426903  2204
HBTSS-SV1               
1 58960U 24028F   24062.10752756  .00000123  00000+0  22463-3 0  9996
2 58960  39.9904 288.9837 0008376 102.6811 257.4872 13.70522282  2214
FALCON 9 R/B            
1 58964U 24030B   24046.27792824 -.00014702  00000+0  00000+0 0  9991
2 58964  28.5100  65.0800 9704700 239.9600   5.0000  0.08200507    02
STARLINK-31373          
1 58965U 24031A   24061.91667824 -.01747153  00000+0 -23088-1 0  9990
2 58965  53.1605 123.8566 0000892  94.2925 247.6014 15.60736706  3600
STARLINK-31449          
1 58966U 24031B   24061.91667824 -.01746726  00000+0 -23091-1 0  9990
2 58966  53.1605 123.8528 0000852  95.2066 248.5679 15.60726665  3590
STARLINK-31314          
1 58967U 24031C   24060.33334491 -.01743756  00000+0 -18581-1 0  9995
2 58967  53.1608 131.5877 0001283  65.6914   1.9529 15.66662160  3342
STARLINK-31356          
1 58968U 24031D   24062.08334491  .00159792  00000+0  14566-2 0  9998
2 58968  53.1609 122.9920 0001398  73.6289 153.7476 15.66899651  3544
