OBJECT_NAME,OBJECT_ID,EPOCH,MEAN_MOTION,ECCENTRICITY,INCLINATION,RA_OF_ASC_NODE,ARG_OF_PERICENTER,MEAN_ANOMALY,EPHEMERIS_TYPE,CLASSIFICATION_TYPE,NORAD_CAT_ID,ELEMENT_SET_NO,REV_AT_EPOCH,BSTAR,MEAN_MOTION_DOT,MEAN_MOTION_DDOT
STARLINK-31383,2024-027F,2024-03-01T22:00:00.999936,15.42382056,0.0001383,53.1589,134.8278,60.6157,16.904,0,U,58936,999,428,-0.056465,-0.02221501,0
STARLINK-31390,2024-027G,2024-03-02T06:00:00.999648,15.42627207,0.0001507,53.1591,133.2424,85.6119,47.7531,0,U,58937,999,428,-0.055752,-0.02212782,0
STARLINK-31377,2024-027H,2024-03-02T06:00:00.999648,15.42622165,0.0001575,53.1591,133.2386,89.6824,45.5941,0,U,58938,999,418,-0.055728,-0.02211626,0
STARLINK-31372,2024-027J,2024-03-02T06:00:00.999648,15.44341904,0.0001605,53.1589,133.2336,89.2872,48.4457,0,U,58939,999,423,-0.049124,-0.02046564,0
STARLINK-31371,2024-027K,2024-03-02T06:00:00.999648,15.44332245,0.0001664,53.1589,133.2294,80.1698,59.4855,0,U,58940,999,428,-0.049044,-0.02043032,0
STARLINK-31345,2024-027L,2024-03-01T22:00:00.999936,15.43832894,0.0001076,53.1583,134.8065,95.2764,352.7137,0,U,58941,999,428,8.4576e-05,3.476e-05,0
STARLINK-31354,2024-027M,2024-03-01T22:00:00.999936,15.43834214,9.96e-05,53.1584,134.8024,98.0803,351.8148,0,U,58942,999,428,0.00028348,0.00012653,0
STARLINK-31346,2024-027N,2024-03-02T06:00:00.999648,15.43852137,9.34e-05,53.1586,133.2174,93.0498,52.4188,0,U,58943,999,423,0.00052477,0.00023829,0
STARLINK-31336,2024-027P,2024-03-02T06:00:00.999648,15.43816824,0.0001198,53.1586,133.2132,80.9922,66.4507,0,U,58944,999,428,0.00055108,0.00025019,0
STARLINK-31359,2024-027Q,2024-02-27T10:00:00.999936,15.70839654,7.9e-05,53.1625,150.8588,90.6214,247.9679,0,U,58945,999,373,-0.015673,-0.01749052,0
STARLINK-31331,2024-027R,2024-03-01T04:00:01.999584,15.43891672,0.0001148,53.1588,138.3423,130.5885,116.2104,0,U,58946,999,407,-0.00062173,-0.00028991,0
STARLINK-31116,2024-027S,2024-03-01T22:00:00.999936,15.43828282,9.53e-05,53.1584,134.7825,78.3247,21.1626,0,U,58947,999,402,0.00038343,0.00017269,0
STARLINK-31311,2024-027T,2024-03-01T16:00:00.999936,15.43842969,9.26e-05,53.1583,135.9657,79.2298,71.8905,0,U,58948,999,388,0.00073433,0.00033545,0
STARLINK-31294,2024-027U,2024-03-01T22:00:00.999936,15.43826996,0.0001167,53.1583,134.7745,94.9865,8.3154,0,U,58949,999,428,0.00069161,0.00031544,0
STARLINK-31287,2024-027V,2024-03-02T04:31:49.101600,16.1512797,0.0004649,53.16,129.3313,16.6932,30.8061,0,U,58950,999,406,0.0012213,0.01619418,0.0022019
STARLINK-31330,2024-027W,2024-03-02T04:00:00.999936,15.43841459,0.0001392,53.1583,133.5764,106.5167,312.7801,0,U,58951,999,427,0.00099312,0.00045584,0
STARLINK-31293,2024-027X,2024-03-02T04:00:00.999936,15.43826001,0.0001102,53.1584,133.5843,84.658,330.8112,0,U,58952,999,417,0.0014076,0.00064914,0
DRUMS TARGET-2,2021-102N,2024-03-01T15:38:23.455104,15.09196994,0.0018046,97.4469,112.1155,255.0864,104.8367,0,U,58954,999,959,0.00095514,0.00015196,0
HBTSS-SV2,2024-028A,2024-03-01T17:54:52.358976,13.70234621,0.0007806,39.9905,290.678,91.3988,268.7653,0,U,58955,999,217,0.00021874,1.17e-06,0
RAPTOR4,2024-028B,2024-03-02T00:53:55.730112,13.70280823,0.0007776,39.9904,289.3315,93.9561,266.2075,0,U,58956,999,220,9.333e-05,5e-08,0
RAPTOR1,2024-028C,2024-03-02T00:53:07.913760,13.70327767,0.0007795,39.9899,289.3354,95.4705,264.693,0,U,58957,999,220,7.6576e-05,-1e-07,0
RAPTOR3,2024-028D,2024-03-02T00:52:16.483296,13.70378181,0.0007751,39.9909,289.3252,97.3283,262.8345,0,U,58958,999,220,2.8619e-05,-5.2e-07,0
RAPTOR2,2024-028E,2024-03-02T00:51:27.688896,13.70426903,0.0007751,39.9903,289.3285,99.1468,261.0155,0,U,58959,999,220,9.4526e-05,6e-08,0
HBTSS-SV1,2024-028F,2024-03-02T02:34:50.381184,13.70522282,0.0008376,39.9904,288.9837,102.6811,257.4872,0,U,58960,999,221,0.00022463,1.23e-06,0
PROGRESS-MS 26,2024-029A,2024-03-01T16:57:34.903008,15.49529377,0.000556,51.6411,128.0425,310.6946,194.0469,0,U,58961,999,44188,0.00031417,0.00017226,0
FALCON 9 R/B,2024-030B,2024-02-15T06:40:12.999936,0.08200507,0.97047,28.51,65.08,239.96,5,0,U,58964,999,0,0,-0.00014702,0
STARLINK-31373,2024-031A,2024-03-01T22:00:00.999936,15.60736706,8.92e-05,53.1605,123.8566,94.2925,247.6014,0,U,58965,999,360,-0.023088,-0.01747153,0
STARLINK-31449,2024-031B,2024-03-01T22:00:00.999936,15.60726665,8.52e-05,53.1605,123.8528,95.2066,248.5679,0,U,58966,999,359,-0.023091,-0.01746726,0
STARLINK-31314,2024-031C,2024-02-29T08:00:01.000224,15.6666216,0.0001283,53.1608,131.5877,65.6914,1.9529,0,U,58967,999,334,-0.018581,-0.01743756,0
STARLINK-31356,2024-031D,2024-03-02T02:00:01.000224,15.66899651,0.0001398,53.1609,122.992,73.6289,153.7476,0,U,58968,999,354,0.0014566,0.00159792,0
